[
  {
    "id": 226,
    "iso": "US",
    "name": "الولايات المتحدة الامريكانية",
    "display_name": "الولايات المتحدة الامريكانية",
    "iso3": "USA",
    "num_code": 840,
    "phone_code": 1
  },
  {
    "id": 1,
    "iso": "AF",
    "name": "أفغانستان",
    "display_name": "أفغانستان",
    "iso3": "AFG",
    "num_code": 4,
    "phone_code": 93
  },
  {
    "id": 2,
    "iso": "AL",
    "name": "ألبانيا",
    "display_name": "ألبانيا",
    "iso3": "ALB",
    "num_code": 8,
    "phone_code": 355
  },
  {
    "id": 3,
    "iso": "DZ",
    "name": "الجزائر",
    "display_name": "الجزائر",
    "iso3": "DZA",
    "num_code": 12,
    "phone_code": 213
  },
  {
    "id": 4,
    "iso": "AS",
    "name": "ساموا الأمريكية",
    "display_name": "ساموا الأمريكية",
    "iso3": "ASM",
    "num_code": 16,
    "phone_code": 1684
  },
  {
    "id": 5,
    "iso": "AD",
    "name": "أندورا",
    "display_name": "أندورا",
    "iso3": "AND",
    "num_code": 20,
    "phone_code": 376
  },
  {
    "id": 6,
    "iso": "AO",
    "name": "أنجولا",
    "display_name": "أنغولا",
    "iso3": "AGO",
    "num_code": 24,
    "phone_code": 244
  },
  {
    "id": 7,
    "iso": "AI",
    "name": "أنغيلا",
    "display_name": "أنغيلا",
    "iso3": "AIA",
    "num_code": 660,
    "phone_code": 1264
  },
  {
    "id": 8,
    "iso": "AQ",
    "name": "القارة القطبية الجنوبية",
    "display_name": "القارة القطبية الجنوبية",
    "iso3": null,
    "num_code": null,
    "phone_code": 6721
  },
  {
    "id": 9,
    "iso": "AG",
    "name": "أنتيغوا وبربودا",
    "display_name": "أنتيغوا وبربودا",
    "iso3": "ATG",
    "num_code": 28,
    "phone_code": 1268
  },
  {
    "id": 10,
    "iso": "AR",
    "name": "الأرجنتين",
    "display_name": "الأرجنتين",
    "iso3": "ARG",
    "num_code": 32,
    "phone_code": 54
  },
  {
    "id": 11,
    "iso": "AM",
    "name": "أرمينيا",
    "display_name": "أرمينيا",
    "iso3": "ARM",
    "num_code": 51,
    "phone_code": 374
  },
  {
    "id": 12,
    "iso": "AW",
    "name": "أروبا",
    "display_name": "أروبا",
    "iso3": "ABW",
    "num_code": 533,
    "phone_code": 297
  },
  {
    "id": 13,
    "iso": "AU",
    "name": "أستراليا",
    "display_name": "أستراليا",
    "iso3": "AUS",
    "num_code": 36,
    "phone_code": 61
  },
  {
    "id": 14,
    "iso": "AT",
    "name": "النمسا",
    "display_name": "النمسا",
    "iso3": "AUT",
    "num_code": 40,
    "phone_code": 43
  },
  {
    "id": 15,
    "iso": "AZ",
    "name": "أذربيجان",
    "display_name": "أذربيجان",
    "iso3": "AZE",
    "num_code": 31,
    "phone_code": 994
  },
  {
    "id": 16,
    "iso": "BS",
    "name": "الباهاما",
    "display_name": "الباهاما",
    "iso3": "BHS",
    "num_code": 44,
    "phone_code": 1242
  },
  {
    "id": 17,
    "iso": "BH",
    "name": "البحرين",
    "display_name": "البحرين",
    "iso3": "BHR",
    "num_code": 48,
    "phone_code": 973
  },
  {
    "id": 18,
    "iso": "BD",
    "name": "بنغلاديش",
    "display_name": "بنغلاديش",
    "iso3": "BGD",
    "num_code": 50,
    "phone_code": 880
  },
  {
    "id": 19,
    "iso": "BB",
    "name": "باربادوس",
    "display_name": "باربادوس",
    "iso3": "BRB",
    "num_code": 52,
    "phone_code": 1246
  },
  {
    "id": 20,
    "iso": "BY",
    "name": "روسيا البيضاء",
    "display_name": "روسيا البيضاء",
    "iso3": "BLR",
    "num_code": 112,
    "phone_code": 375
  },
  {
    "id": 21,
    "iso": "BE",
    "name": "بلجيكا",
    "display_name": "بلجيكا",
    "iso3": "BEL",
    "num_code": 56,
    "phone_code": 32
  },
  {
    "id": 22,
    "iso": "BZ",
    "name": "بليز",
    "display_name": "بليز",
    "iso3": "BLZ",
    "num_code": 84,
    "phone_code": 501
  },
  {
    "id": 23,
    "iso": "BJ",
    "name": "بنين",
    "display_name": "بنين",
    "iso3": "BEN",
    "num_code": 204,
    "phone_code": 229
  },
  {
    "id": 24,
    "iso": "BM",
    "name": "برمودا",
    "display_name": "برمودا",
    "iso3": "BMU",
    "num_code": 60,
    "phone_code": 1441
  },
  {
    "id": 25,
    "iso": "BT",
    "name": "بوتان",
    "display_name": "بوتان",
    "iso3": "BTN",
    "num_code": 64,
    "phone_code": 975
  },
  {
    "id": 26,
    "iso": "BO",
    "name": "بوليفيا",
    "display_name": "بوليفيا",
    "iso3": "BOL",
    "num_code": 68,
    "phone_code": 591
  },
  {
    "id": 27,
    "iso": "BA",
    "name": "البوسنة والهرسك",
    "display_name": "البوسنة والهرسك",
    "iso3": "BIH",
    "num_code": 70,
    "phone_code": 387
  },
  {
    "id": 28,
    "iso": "BW",
    "name": "بوتسوانا",
    "display_name": "بوتسوانا",
    "iso3": "BWA",
    "num_code": 72,
    "phone_code": 267
  },
  {
    "id": 29,
    "iso": "BV",
    "name": "بوفيت آيلاند",
    "display_name": "بوفيت آيلاند",
    "iso3": null,
    "num_code": null,
    "phone_code": 55
  },
  {
    "id": 30,
    "iso": "BR",
    "name": "البرازيل",
    "display_name": "البرازيل",
    "iso3": "BRA",
    "num_code": 76,
    "phone_code": 55
  },
  {
    "id": 31,
    "iso": "IO",
    "name": "إقليم المحيط البريطاني الهندي",
    "display_name": "إقليم المحيط البريطاني الهندي",
    "iso3": null,
    "num_code": null,
    "phone_code": 246
  },
  {
    "id": 32,
    "iso": "BN",
    "name": "بروناي دار السلام",
    "display_name": "بروناي دار السلام",
    "iso3": "BRN",
    "num_code": 96,
    "phone_code": 673
  },
  {
    "id": 33,
    "iso": "BG",
    "name": "بلغاريا",
    "display_name": "بلغاريا",
    "iso3": "BGR",
    "num_code": 100,
    "phone_code": 359
  },
  {
    "id": 34,
    "iso": "BF",
    "name": "بوركينا فاسو",
    "display_name": "بوركينا فاسو",
    "iso3": "BFA",
    "num_code": 854,
    "phone_code": 226
  },
  {
    "id": 35,
    "iso": "BI",
    "name": "بوروندي",
    "display_name": "بوروندي",
    "iso3": "BDI",
    "num_code": 108,
    "phone_code": 257
  },
  {
    "id": 36,
    "iso": "KH",
    "name": "كمبوديا",
    "display_name": "كمبوديا",
    "iso3": "KHM",
    "num_code": 116,
    "phone_code": 855
  },
  {
    "id": 37,
    "iso": "CM",
    "name": "الكاميرون",
    "display_name": "الكاميرون",
    "iso3": "CMR",
    "num_code": 120,
    "phone_code": 237
  },
  {
    "id": 38,
    "iso": "CA",
    "name": "كندا",
    "display_name": "كندا",
    "iso3": "CAN",
    "num_code": 124,
    "phone_code": 1
  },
  {
    "id": 39,
    "iso": "CV",
    "name": "الرأس الأخضر",
    "display_name": "الرأس الأخضر",
    "iso3": "CPV",
    "num_code": 132,
    "phone_code": 238
  },
  {
    "id": 40,
    "iso": "KY",
    "name": "جزر كايمان",
    "display_name": "جزر كايمان",
    "iso3": "CYM",
    "num_code": 136,
    "phone_code": 1345
  },
  {
    "id": 41,
    "iso": "CF",
    "name": "جمهورية افريقيا الوسطى",
    "display_name": "جمهورية افريقيا الوسطى",
    "iso3": "CAF",
    "num_code": 140,
    "phone_code": 236
  },
  {
    "id": 42,
    "iso": "TD",
    "name": "تشاد",
    "display_name": "تشاد",
    "iso3": "TCD",
    "num_code": 148,
    "phone_code": 235
  },
  {
    "id": 43,
    "iso": "CL",
    "name": "تشيلي",
    "display_name": "تشيلي",
    "iso3": "CHL",
    "num_code": 152,
    "phone_code": 56
  },
  {
    "id": 44,
    "iso": "CN",
    "name": "الصين",
    "display_name": "الصين",
    "iso3": "CHN",
    "num_code": 156,
    "phone_code": 86
  },
  {
    "id": 45,
    "iso": "CX",
    "name": "جزيرة عيد الميلاد",
    "display_name": "جزيرة عيد الميلاد",
    "iso3": null,
    "num_code": null,
    "phone_code": 61
  },
  {
    "id": 46,
    "iso": "CC",
    "name": "جزر كوكوس (كيلينغ)",
    "display_name": "جزر كوكوس (كيلينغ)",
    "iso3": null,
    "num_code": null,
    "phone_code": 891
  },
  {
    "id": 47,
    "iso": "CO",
    "name": "كولومبيا",
    "display_name": "كولومبيا",
    "iso3": "COL",
    "num_code": 170,
    "phone_code": 57
  },
  {
    "id": 48,
    "iso": "KM",
    "name": "جزر القمر",
    "display_name": "جزر القمر",
    "iso3": "COM",
    "num_code": 174,
    "phone_code": 269
  },
  {
    "id": 49,
    "iso": "CG",
    "name": "الكونغو",
    "display_name": "الكونغو",
    "iso3": "COG",
    "num_code": 178,
    "phone_code": 242
  },
  {
    "id": 50,
    "iso": "CD",
    "name": "الكونغو، جمهورية الكونغو الديمقراطية",
    "display_name": "الكونغو، جمهورية الكونغو الديمقراطية",
    "iso3": "COD",
    "num_code": 180,
    "phone_code": 242
  },
  {
    "id": 51,
    "iso": "CK",
    "name": "جزر كوك",
    "display_name": "جزر كوك",
    "iso3": "COK",
    "num_code": 184,
    "phone_code": 682
  },
  {
    "id": 52,
    "iso": "CR",
    "name": "كوستا ريكا",
    "display_name": "كوستا ريكا",
    "iso3": "CRI",
    "num_code": 188,
    "phone_code": 506
  },
  {
    "id": 53,
    "iso": "CI",
    "name": "كوت ديفوار",
    "display_name": "كوت ديفوار",
    "iso3": "CIV",
    "num_code": 384,
    "phone_code": 225
  },
  {
    "id": 54,
    "iso": "HR",
    "name": "كرواتيا",
    "display_name": "كرواتيا",
    "iso3": "HRV",
    "num_code": 191,
    "phone_code": 385
  },
  {
    "id": 55,
    "iso": "CU",
    "name": "كوبا",
    "display_name": "كوبا",
    "iso3": "CUB",
    "num_code": 192,
    "phone_code": 53
  },
  {
    "id": 56,
    "iso": "CY",
    "name": "قبرص",
    "display_name": "قبرص",
    "iso3": "CYP",
    "num_code": 196,
    "phone_code": 357
  },
  {
    "id": 57,
    "iso": "CZ",
    "name": "جمهورية التشيك",
    "display_name": "جمهورية التشيك",
    "iso3": "CZE",
    "num_code": 203,
    "phone_code": 420
  },
  {
    "id": 58,
    "iso": "DK",
    "name": "الدانمارك",
    "display_name": "الدانمارك",
    "iso3": "DNK",
    "num_code": 208,
    "phone_code": 45
  },
  {
    "id": 59,
    "iso": "DJ",
    "name": "جيبوتي",
    "display_name": "جيبوتي",
    "iso3": "DJI",
    "num_code": 262,
    "phone_code": 253
  },
  {
    "id": 60,
    "iso": "DM",
    "name": "دومينيكا",
    "display_name": "دومينيكا",
    "iso3": "DMA",
    "num_code": 212,
    "phone_code": 1767
  },
  {
    "id": 61,
    "iso": "DO",
    "name": "جمهورية الدومنيكان",
    "display_name": "جمهورية الدومنيكان",
    "iso3": "DOM",
    "num_code": 214,
    "phone_code": 1809
  },
  {
    "id": 62,
    "iso": "EC",
    "name": "الإكوادور",
    "display_name": "الإكوادور",
    "iso3": "ECU",
    "num_code": 218,
    "phone_code": 593
  },
  {
    "id": 63,
    "iso": "EG",
    "name": "مصر",
    "display_name": "مصر",
    "iso3": "EGY",
    "num_code": 818,
    "phone_code": 20
  },
  {
    "id": 64,
    "iso": "SV",
    "name": "السلفادور",
    "display_name": "السلفادور",
    "iso3": "SLV",
    "num_code": 222,
    "phone_code": 503
  },
  {
    "id": 65,
    "iso": "GQ",
    "name": "غينيا الإستوائية",
    "display_name": "غينيا الإستوائية",
    "iso3": "GNQ",
    "num_code": 226,
    "phone_code": 240
  },
  {
    "id": 66,
    "iso": "ER",
    "name": "إريتريا",
    "display_name": "إريتريا",
    "iso3": "ERI",
    "num_code": 232,
    "phone_code": 291
  },
  {
    "id": 67,
    "iso": "EE",
    "name": "إستونيا",
    "display_name": "إستونيا",
    "iso3": "EST",
    "num_code": 233,
    "phone_code": 372
  },
  {
    "id": 68,
    "iso": "ET",
    "name": "أثيوبيا",
    "display_name": "أثيوبيا",
    "iso3": "ETH",
    "num_code": 231,
    "phone_code": 251
  },
  {
    "id": 69,
    "iso": "FK",
    "name": "جزر فوكلاند (مالفيناس)",
    "display_name": "جزر فوكلاند (مالفيناس)",
    "iso3": "FLK",
    "num_code": 238,
    "phone_code": 500
  },
  {
    "id": 70,
    "iso": "FO",
    "name": "جزر صناعية",
    "display_name": "جزر صناعية",
    "iso3": "FRO",
    "num_code": 234,
    "phone_code": 298
  },
  {
    "id": 71,
    "iso": "FJ",
    "name": "فيجي",
    "display_name": "فيجي",
    "iso3": "FJI",
    "num_code": 242,
    "phone_code": 679
  },
  {
    "id": 72,
    "iso": "FI",
    "name": "فنلندا",
    "display_name": "فنلندا",
    "iso3": "FIN",
    "num_code": 246,
    "phone_code": 358
  },
  {
    "id": 73,
    "iso": "FR",
    "name": "فرنسا",
    "display_name": "فرنسا",
    "iso3": "FRA",
    "num_code": 250,
    "phone_code": 33
  },
  {
    "id": 74,
    "iso": "GF",
    "name": "غيانا الفرنسية",
    "display_name": "غيانا الفرنسية",
    "iso3": "GUF",
    "num_code": 254,
    "phone_code": 594
  },
  {
    "id": 75,
    "iso": "PF",
    "name": "بولينيزيا الفرنسية",
    "display_name": "بولينيزيا الفرنسية",
    "iso3": "PYF",
    "num_code": 258,
    "phone_code": 689
  },
  {
    "id": 76,
    "iso": "TF",
    "name": "المناطق الجنوبية لفرنسا",
    "display_name": "المناطق الجنوبية لفرنسا",
    "iso3": null,
    "num_code": null,
    "phone_code": 0
  },
  {
    "id": 77,
    "iso": "GA",
    "name": "الجابون",
    "display_name": "الجابون",
    "iso3": "GAB",
    "num_code": 266,
    "phone_code": 241
  },
  {
    "id": 78,
    "iso": "GM",
    "name": "غامبيا",
    "display_name": "غامبيا",
    "iso3": "GMB",
    "num_code": 270,
    "phone_code": 220
  },
  {
    "id": 79,
    "iso": "GE",
    "name": "جورجيا",
    "display_name": "جورجيا",
    "iso3": "GEO",
    "num_code": 268,
    "phone_code": 995
  },
  {
    "id": 80,
    "iso": "DE",
    "name": "ألمانيا",
    "display_name": "ألمانيا",
    "iso3": "DEU",
    "num_code": 276,
    "phone_code": 49
  },
  {
    "id": 81,
    "iso": "GH",
    "name": "غانا",
    "display_name": "غانا",
    "iso3": "GHA",
    "num_code": 288,
    "phone_code": 233
  },
  {
    "id": 82,
    "iso": "GI",
    "name": "جبل طارق",
    "display_name": "جبل طارق",
    "iso3": "GIB",
    "num_code": 292,
    "phone_code": 350
  },
  {
    "id": 83,
    "iso": "GR",
    "name": "اليونان",
    "display_name": "اليونان",
    "iso3": "GRC",
    "num_code": 300,
    "phone_code": 30
  },
  {
    "id": 84,
    "iso": "GL",
    "name": "الأرض الخضراء",
    "display_name": "الأرض الخضراء",
    "iso3": "GRL",
    "num_code": 304,
    "phone_code": 299
  },
  {
    "id": 85,
    "iso": "GD",
    "name": "غرينادا",
    "display_name": "غرينادا",
    "iso3": "GRD",
    "num_code": 308,
    "phone_code": 1473
  },
  {
    "id": 86,
    "iso": "GP",
    "name": "جوادلوب",
    "display_name": "جوادلوب",
    "iso3": "GLP",
    "num_code": 312,
    "phone_code": 590
  },
  {
    "id": 87,
    "iso": "GU",
    "name": "جوام",
    "display_name": "جوام",
    "iso3": "GUM",
    "num_code": 316,
    "phone_code": 1671
  },
  {
    "id": 88,
    "iso": "GT",
    "name": "غواتيمالا",
    "display_name": "غواتيمالا",
    "iso3": "GTM",
    "num_code": 320,
    "phone_code": 502
  },
  {
    "id": 89,
    "iso": "GN",
    "name": "غينيا",
    "display_name": "غينيا",
    "iso3": "GIN",
    "num_code": 324,
    "phone_code": 224
  },
  {
    "id": 90,
    "iso": "GW",
    "name": "غينيا بيساو",
    "display_name": "غينيا بيساو",
    "iso3": "GNB",
    "num_code": 624,
    "phone_code": 245
  },
  {
    "id": 91,
    "iso": "GY",
    "name": "غيانا",
    "display_name": "غيانا",
    "iso3": "GUY",
    "num_code": 328,
    "phone_code": 592
  },
  {
    "id": 92,
    "iso": "HT",
    "name": "هايتي",
    "display_name": "هايتي",
    "iso3": "HTI",
    "num_code": 332,
    "phone_code": 509
  },
  {
    "id": 93,
    "iso": "HM",
    "name": "قلب الجزيرة وجزر ماكدونالز",
    "display_name": "قلب الجزيرة وجزر ماكدونالز",
    "iso3": null,
    "num_code": null,
    "phone_code": 672
  },
  {
    "id": 94,
    "iso": "VA",
    "name": "الكرسي الرسولي (دولة مدينة الفاتيكان)",
    "display_name": "الكرسي الرسولي (دولة مدينة الفاتيكان)",
    "iso3": "VAT",
    "num_code": 336,
    "phone_code": 39
  },
  {
    "id": 95,
    "iso": "HN",
    "name": "هندوراس",
    "display_name": "هندوراس",
    "iso3": "HND",
    "num_code": 340,
    "phone_code": 504
  },
  {
    "id": 96,
    "iso": "HK",
    "name": "هونج كونج",
    "display_name": "هونج كونج",
    "iso3": "HKG",
    "num_code": 344,
    "phone_code": 852
  },
  {
    "id": 97,
    "iso": "HU",
    "name": "اليونان",
    "display_name": "اليونان",
    "iso3": "HUN",
    "num_code": 348,
    "phone_code": 36
  },
  {
    "id": 98,
    "iso": "IS",
    "name": "أيسلندا",
    "display_name": "أيسلندا",
    "iso3": "ISL",
    "num_code": 352,
    "phone_code": 354
  },
  {
    "id": 99,
    "iso": "IN",
    "name": "الهند",
    "display_name": "الهند",
    "iso3": "IND",
    "num_code": 356,
    "phone_code": 91
  },
  {
    "id": 100,
    "iso": "ID",
    "name": "أندونيسيا",
    "display_name": "أندونيسيا",
    "iso3": "IDN",
    "num_code": 360,
    "phone_code": 62
  },
  {
    "id": 101,
    "iso": "IR",
    "name": "ايران، جمهورية اسلامية",
    "display_name": "ايران، جمهورية اسلامية",
    "iso3": "IRN",
    "num_code": 364,
    "phone_code": 98
  },
  {
    "id": 102,
    "iso": "IQ",
    "name": "العراق",
    "display_name": "العراق",
    "iso3": "IRQ",
    "num_code": 368,
    "phone_code": 964
  },
  {
    "id": 103,
    "iso": "IE",
    "name": "أيرلندا",
    "display_name": "أيرلندا",
    "iso3": "IRL",
    "num_code": 372,
    "phone_code": 353
  },
  {
    "id": 104,
    "iso": "IL",
    "name": "إسرائيل",
    "display_name": "إسرائيل",
    "iso3": "ISR",
    "num_code": 376,
    "phone_code": 972
  },
  {
    "id": 105,
    "iso": "IT",
    "name": "إيطاليا",
    "display_name": "إيطاليا",
    "iso3": "ITA",
    "num_code": 380,
    "phone_code": 39
  },
  {
    "id": 106,
    "iso": "JM",
    "name": "جامايكا",
    "display_name": "جامايكا",
    "iso3": "JAM",
    "num_code": 388,
    "phone_code": 1876
  },
  {
    "id": 107,
    "iso": "JP",
    "name": "اليابان",
    "display_name": "اليابان",
    "iso3": "JPN",
    "num_code": 392,
    "phone_code": 81
  },
  {
    "id": 108,
    "iso": "JO",
    "name": "الأردن",
    "display_name": "الأردن",
    "iso3": "JOR",
    "num_code": 400,
    "phone_code": 962
  },
  {
    "id": 109,
    "iso": "KZ",
    "name": "كازاخستان",
    "display_name": "كازاخستان",
    "iso3": "KAZ",
    "num_code": 398,
    "phone_code": 7
  },
  {
    "id": 110,
    "iso": "KE",
    "name": "كينيا",
    "display_name": "كينيا",
    "iso3": "KEN",
    "num_code": 404,
    "phone_code": 254
  },
  {
    "id": 111,
    "iso": "KI",
    "name": "كيريباس",
    "display_name": "كيريباس",
    "iso3": "KIR",
    "num_code": 296,
    "phone_code": 686
  },
  {
    "id": 112,
    "iso": "KP",
    "name": "كوريا، الجمهورية الشعبية الديمقراطية",
    "display_name": "كوريا، الجمهورية الشعبية الديمقراطية",
    "iso3": "PRK",
    "num_code": 408,
    "phone_code": 850
  },
  {
    "id": 113,
    "iso": "KR",
    "name": "جمهورية كوريا",
    "display_name": "جمهورية كوريا",
    "iso3": "KOR",
    "num_code": 410,
    "phone_code": 82
  },
  {
    "id": 114,
    "iso": "KW",
    "name": "الكويت",
    "display_name": "الكويت",
    "iso3": "KWT",
    "num_code": 414,
    "phone_code": 965
  },
  {
    "id": 115,
    "iso": "KG",
    "name": "قرغيزستان",
    "display_name": "قرغيزستان",
    "iso3": "KGZ",
    "num_code": 417,
    "phone_code": 996
  },
  {
    "id": 116,
    "iso": "LA",
    "name": "جمهورية لاو الشعبية الديمقراطية",
    "display_name": "جمهورية لاو الشعبية الديمقراطية",
    "iso3": "LAO",
    "num_code": 418,
    "phone_code": 856
  },
  {
    "id": 117,
    "iso": "LV",
    "name": "لاتفيا",
    "display_name": "لاتفيا",
    "iso3": "LVA",
    "num_code": 428,
    "phone_code": 371
  },
  {
    "id": 118,
    "iso": "LB",
    "name": "لبنان",
    "display_name": "لبنان",
    "iso3": "LBN",
    "num_code": 422,
    "phone_code": 961
  },
  {
    "id": 119,
    "iso": "LS",
    "name": "ليسوتو",
    "display_name": "ليسوتو",
    "iso3": "LSO",
    "num_code": 426,
    "phone_code": 266
  },
  {
    "id": 120,
    "iso": "LR",
    "name": "ليبيريا",
    "display_name": "ليبيريا",
    "iso3": "LBR",
    "num_code": 430,
    "phone_code": 231
  },
  {
    "id": 121,
    "iso": "LY",
    "name": "الجماهيرية العربية الليبية",
    "display_name": "الجماهيرية العربية الليبية",
    "iso3": "LBY",
    "num_code": 434,
    "phone_code": 218
  },
  {
    "id": 122,
    "iso": "LI",
    "name": "ليختنشتاين",
    "display_name": "ليختنشتاين",
    "iso3": "LIE",
    "num_code": 438,
    "phone_code": 423
  },
  {
    "id": 123,
    "iso": "LT",
    "name": "ليثوانيا",
    "display_name": "ليثوانيا",
    "iso3": "LTU",
    "num_code": 440,
    "phone_code": 370
  },
  {
    "id": 124,
    "iso": "LU",
    "name": "اللوكسمبورغ",
    "display_name": "اللوكسمبورغ",
    "iso3": "LUX",
    "num_code": 442,
    "phone_code": 352
  },
  {
    "id": 125,
    "iso": "MO",
    "name": "ماكاو",
    "display_name": "ماكاو",
    "iso3": "MAC",
    "num_code": 446,
    "phone_code": 853
  },
  {
    "id": 126,
    "iso": "MK",
    "name": "مقدونيا ، جمهورية مقدونيا اليوغسلافية السابقة",
    "display_name": "مقدونيا ، جمهورية مقدونيا اليوغسلافية السابقة",
    "iso3": "MKD",
    "num_code": 807,
    "phone_code": 389
  },
  {
    "id": 127,
    "iso": "MG",
    "name": "مدغشقر",
    "display_name": "مدغشقر",
    "iso3": "MDG",
    "num_code": 450,
    "phone_code": 261
  },
  {
    "id": 128,
    "iso": "MW",
    "name": "مالاوي",
    "display_name": "مالاوي",
    "iso3": "MWI",
    "num_code": 454,
    "phone_code": 265
  },
  {
    "id": 129,
    "iso": "MY",
    "name": "ماليزيا",
    "display_name": "ماليزيا",
    "iso3": "MYS",
    "num_code": 458,
    "phone_code": 60
  },
  {
    "id": 130,
    "iso": "MV",
    "name": "المالديف",
    "display_name": "المالديف",
    "iso3": "MDV",
    "num_code": 462,
    "phone_code": 960
  },
  {
    "id": 131,
    "iso": "ML",
    "name": "مالي",
    "display_name": "مالي",
    "iso3": "MLI",
    "num_code": 466,
    "phone_code": 223
  },
  {
    "id": 132,
    "iso": "MT",
    "name": "مالطا",
    "display_name": "مالطا",
    "iso3": "MLT",
    "num_code": 470,
    "phone_code": 356
  },
  {
    "id": 133,
    "iso": "MH",
    "name": "مارشال جزر",
    "display_name": "مارشال جزر",
    "iso3": "MHL",
    "num_code": 584,
    "phone_code": 692
  },
  {
    "id": 134,
    "iso": "MQ",
    "name": "مارتينيك",
    "display_name": "مارتينيك",
    "iso3": "MTQ",
    "num_code": 474,
    "phone_code": 596
  },
  {
    "id": 135,
    "iso": "MR",
    "name": "موريتانيا",
    "display_name": "موريتانيا",
    "iso3": "MRT",
    "num_code": 478,
    "phone_code": 222
  },
  {
    "id": 136,
    "iso": "MU",
    "name": "موريشيوس",
    "display_name": "موريشيوس",
    "iso3": "MUS",
    "num_code": 480,
    "phone_code": 230
  },
  {
    "id": 137,
    "iso": "YT",
    "name": "مايوت",
    "display_name": "مايوت",
    "iso3": null,
    "num_code": null,
    "phone_code": 269
  },
  {
    "id": 138,
    "iso": "MX",
    "name": "المكسيك",
    "display_name": "المكسيك",
    "iso3": "MEX",
    "num_code": 484,
    "phone_code": 52
  },
  {
    "id": 139,
    "iso": "FM",
    "name": "ميكرونيزيا ، الولايات المتحولة من",
    "display_name": "ميكرونيزيا ، الولايات المتحولة من",
    "iso3": "FSM",
    "num_code": 583,
    "phone_code": 691
  },
  {
    "id": 140,
    "iso": "MD",
    "name": "جمهورية مولدوفا",
    "display_name": "جمهورية مولدوفا",
    "iso3": "MDA",
    "num_code": 498,
    "phone_code": 373
  },
  {
    "id": 141,
    "iso": "MC",
    "name": "موناكو",
    "display_name": "موناكو",
    "iso3": "MCO",
    "num_code": 492,
    "phone_code": 377
  },
  {
    "id": 142,
    "iso": "MN",
    "name": "منغوليا",
    "display_name": "منغوليا",
    "iso3": "MNG",
    "num_code": 496,
    "phone_code": 976
  },
  {
    "id": 143,
    "iso": "MS",
    "name": "مونتسيرات",
    "display_name": "مونتسيرات",
    "iso3": "MSR",
    "num_code": 500,
    "phone_code": 1664
  },
  {
    "id": 144,
    "iso": "MA",
    "name": "المغرب",
    "display_name": "المغرب",
    "iso3": "MAR",
    "num_code": 504,
    "phone_code": 212
  },
  {
    "id": 145,
    "iso": "MZ",
    "name": "موزمبيق",
    "display_name": "موزمبيق",
    "iso3": "MOZ",
    "num_code": 508,
    "phone_code": 258
  },
  {
    "id": 146,
    "iso": "MM",
    "name": "ميانمار",
    "display_name": "ميانمار",
    "iso3": "MMR",
    "num_code": 104,
    "phone_code": 95
  },
  {
    "id": 147,
    "iso": "NA",
    "name": "ناميبيا",
    "display_name": "ناميبيا",
    "iso3": "NAM",
    "num_code": 516,
    "phone_code": 264
  },
  {
    "id": 148,
    "iso": "NR",
    "name": "ناورو",
    "display_name": "ناورو",
    "iso3": "NRU",
    "num_code": 520,
    "phone_code": 674
  },
  {
    "id": 149,
    "iso": "NP",
    "name": "نيبال",
    "display_name": "نيبال",
    "iso3": "NPL",
    "num_code": 524,
    "phone_code": 977
  },
  {
    "id": 150,
    "iso": "NL",
    "name": "هولندا",
    "display_name": "هولندا",
    "iso3": "NLD",
    "num_code": 528,
    "phone_code": 31
  },
  {
    "id": 151,
    "iso": "AN",
    "name": "جزر الأنتيل الهولندية",
    "display_name": "جزر الأنتيل الهولندية",
    "iso3": "ANT",
    "num_code": 530,
    "phone_code": 599
  },
  {
    "id": 152,
    "iso": "NC",
    "name": "كاليدونيا الجديدة",
    "display_name": "كاليدونيا الجديدة",
    "iso3": "NCL",
    "num_code": 540,
    "phone_code": 687
  },
  {
    "id": 153,
    "iso": "NZ",
    "name": "نيوزيلندا",
    "display_name": "نيوزيلندا",
    "iso3": "NZL",
    "num_code": 554,
    "phone_code": 64
  },
  {
    "id": 154,
    "iso": "NI",
    "name": "نيكاراغوا",
    "display_name": "نيكاراغوا",
    "iso3": "NIC",
    "num_code": 558,
    "phone_code": 505
  },
  {
    "id": 155,
    "iso": "NE",
    "name": "النيجر",
    "display_name": "النيجر",
    "iso3": "NER",
    "num_code": 562,
    "phone_code": 227
  },
  {
    "id": 156,
    "iso": "NG",
    "name": "نيجيريا",
    "display_name": "نيجيريا",
    "iso3": "NGA",
    "num_code": 566,
    "phone_code": 234
  },
  {
    "id": 157,
    "iso": "NU",
    "name": "نيوي",
    "display_name": "نيوي",
    "iso3": "NIU",
    "num_code": 570,
    "phone_code": 683
  },
  {
    "id": 158,
    "iso": "NF",
    "name": "جزيرة نورفولك",
    "display_name": "جزيرة نورفولك",
    "iso3": "NFK",
    "num_code": 574,
    "phone_code": 672
  },
  {
    "id": 159,
    "iso": "MP",
    "name": "جزر مريانا الشمالية",
    "display_name": "جزر مريانا الشمالية",
    "iso3": "MNP",
    "num_code": 580,
    "phone_code": 1670
  },
  {
    "id": 160,
    "iso": "NO",
    "name": "النرويج",
    "display_name": "النرويج",
    "iso3": "NOR",
    "num_code": 578,
    "phone_code": 47
  },
  {
    "id": 161,
    "iso": "OM",
    "name": "سلطنة عمان",
    "display_name": "سلطنة عمان",
    "iso3": "OMN",
    "num_code": 512,
    "phone_code": 968
  },
  {
    "id": 162,
    "iso": "PK",
    "name": "باكستان",
    "display_name": "باكستان",
    "iso3": "PAK",
    "num_code": 586,
    "phone_code": 92
  },
  {
    "id": 163,
    "iso": "PW",
    "name": "بالاو",
    "display_name": "بالاو",
    "iso3": "PLW",
    "num_code": 585,
    "phone_code": 680
  },
  {
    "id": 164,
    "iso": "PS",
    "name": "الأراضي الفلسطينية المحتلة",
    "display_name": "الأراضي الفلسطينية المحتلة",
    "iso3": null,
    "num_code": null,
    "phone_code": 970
  },
  {
    "id": 165,
    "iso": "PA",
    "name": "بنما",
    "display_name": "بنما",
    "iso3": "PAN",
    "num_code": 591,
    "phone_code": 507
  },
  {
    "id": 166,
    "iso": "PG",
    "name": "بابوا غينيا الجديدة",
    "display_name": "بابوا غينيا الجديدة",
    "iso3": "PNG",
    "num_code": 598,
    "phone_code": 675
  },
  {
    "id": 167,
    "iso": "PY",
    "name": "باراغواي",
    "display_name": "باراغواي",
    "iso3": "PRY",
    "num_code": 600,
    "phone_code": 595
  },
  {
    "id": 168,
    "iso": "PE",
    "name": "بيرو",
    "display_name": "بيرو",
    "iso3": "PER",
    "num_code": 604,
    "phone_code": 51
  },
  {
    "id": 169,
    "iso": "PH",
    "name": "الفلبين",
    "display_name": "الفلبين",
    "iso3": "PHL",
    "num_code": 608,
    "phone_code": 63
  },
  {
    "id": 170,
    "iso": "PN",
    "name": "بيتكيرن",
    "display_name": "بيتكيرن",
    "iso3": "PCN",
    "num_code": 612,
    "phone_code": 64
  },
  {
    "id": 171,
    "iso": "PL",
    "name": "بولندا",
    "display_name": "بولندا",
    "iso3": "POL",
    "num_code": 616,
    "phone_code": 48
  },
  {
    "id": 172,
    "iso": "PT",
    "name": "البرتغال",
    "display_name": "البرتغال",
    "iso3": "PRT",
    "num_code": 620,
    "phone_code": 351
  },
  {
    "id": 173,
    "iso": "PR",
    "name": "بويرتو ريكو",
    "display_name": "بويرتو ريكو",
    "iso3": "PRI",
    "num_code": 630,
    "phone_code": 1787
  },
  {
    "id": 174,
    "iso": "QA",
    "name": "دولة قطر",
    "display_name": "دولة قطر",
    "iso3": "QAT",
    "num_code": 634,
    "phone_code": 974
  },
  {
    "id": 175,
    "iso": "RE",
    "name": "جمع شمل",
    "display_name": "جمع شمل",
    "iso3": "REU",
    "num_code": 638,
    "phone_code": 262
  },
  {
    "id": 176,
    "iso": "RO",
    "name": "رومانيا",
    "display_name": "رومانيا",
    "iso3": "ROM",
    "num_code": 642,
    "phone_code": 40
  },
  {
    "id": 177,
    "iso": "RU",
    "name": "الاتحاد الروسي",
    "display_name": "الاتحاد الروسي",
    "iso3": "RUS",
    "num_code": 643,
    "phone_code": 70
  },
  {
    "id": 178,
    "iso": "RW",
    "name": "رواندا",
    "display_name": "رواندا",
    "iso3": "RWA",
    "num_code": 646,
    "phone_code": 250
  },
  {
    "id": 179,
    "iso": "SH",
    "name": "سانت هيلينا",
    "display_name": "سانت هيلينا",
    "iso3": "SHN",
    "num_code": 654,
    "phone_code": 290
  },
  {
    "id": 180,
    "iso": "KN",
    "name": "سانت كيتس ونيفيس",
    "display_name": "سانت كيتس ونيفيس",
    "iso3": "KNA",
    "num_code": 659,
    "phone_code": 1869
  },
  {
    "id": 181,
    "iso": "LC",
    "name": "القديسة لوسيا",
    "display_name": "القديسة لوسيا",
    "iso3": "LCA",
    "num_code": 662,
    "phone_code": 1758
  },
  {
    "id": 182,
    "iso": "PM",
    "name": "سانت بيير وميكلون",
    "display_name": "سانت بيير وميكلون",
    "iso3": "SPM",
    "num_code": 666,
    "phone_code": 508
  },
  {
    "id": 183,
    "iso": "VC",
    "name": "سانت فنسنت وجزر غرينادين",
    "display_name": "سانت فنسنت وجزر غرينادين",
    "iso3": "VCT",
    "num_code": 670,
    "phone_code": 1784
  },
  {
    "id": 184,
    "iso": "WS",
    "name": "ساموا",
    "display_name": "ساموا",
    "iso3": "WSM",
    "num_code": 882,
    "phone_code": 684
  },
  {
    "id": 185,
    "iso": "SM",
    "name": "سان مارينو",
    "display_name": "سان مارينو",
    "iso3": "SMR",
    "num_code": 674,
    "phone_code": 378
  },
  {
    "id": 186,
    "iso": "ST",
    "name": "ساو تومي وبرينسيبي السعودية",
    "display_name": "ساو تومي وبرينسيبي السعودية",
    "iso3": "STP",
    "num_code": 678,
    "phone_code": 239
  },
  {
    "id": 187,
    "iso": "SA",
    "name": "السنغال",
    "display_name": "السنغال",
    "iso3": "SAU",
    "num_code": 682,
    "phone_code": 966
  },
  {
    "id": 188,
    "iso": "SN",
    "name": "السنغال",
    "display_name": "السنغال",
    "iso3": "SEN",
    "num_code": 686,
    "phone_code": 221
  },
  {
    "id": 189,
    "iso": "CS",
    "name": "صربيا والجبل الأسود",
    "display_name": "صربيا والجبل الأسود",
    "iso3": null,
    "num_code": null,
    "phone_code": 381
  },
  {
    "id": 190,
    "iso": "SC",
    "name": "سيشيل",
    "display_name": "سيشيل",
    "iso3": "SYC",
    "num_code": 690,
    "phone_code": 248
  },
  {
    "id": 191,
    "iso": "SL",
    "name": "سيرا ليون",
    "display_name": "سيرا ليون",
    "iso3": "SLE",
    "num_code": 694,
    "phone_code": 232
  },
  {
    "id": 192,
    "iso": "SG",
    "name": "سنغافورة",
    "display_name": "سنغافورة",
    "iso3": "SGP",
    "num_code": 702,
    "phone_code": 65
  },
  {
    "id": 193,
    "iso": "SK",
    "name": "سلوفاكيا",
    "display_name": "سلوفاكيا",
    "iso3": "SVK",
    "num_code": 703,
    "phone_code": 421
  },
  {
    "id": 194,
    "iso": "SI",
    "name": "سلوفينيا",
    "display_name": "سلوفينيا",
    "iso3": "SVN",
    "num_code": 705,
    "phone_code": 386
  },
  {
    "id": 195,
    "iso": "SB",
    "name": "جزر سليمان",
    "display_name": "جزر سليمان",
    "iso3": "SLB",
    "num_code": 90,
    "phone_code": 677
  },
  {
    "id": 196,
    "iso": "SO",
    "name": "الصومال",
    "display_name": "الصومال",
    "iso3": "SOM",
    "num_code": 706,
    "phone_code": 252
  },
  {
    "id": 197,
    "iso": "ZA",
    "name": "جنوب أفريقيا",
    "display_name": "جنوب أفريقيا",
    "iso3": "ZAF",
    "num_code": 710,
    "phone_code": 27
  },
  {
    "id": 198,
    "iso": "GS",
    "name": "جورجيا الجنوبية وجزر ساندويتش الجنوبية",
    "display_name": "جورجيا الجنوبية وجزر ساندويتش الجنوبية",
    "iso3": null,
    "num_code": null,
    "phone_code": 995
  },
  {
    "id": 199,
    "iso": "ES",
    "name": "إسبانيا",
    "display_name": "إسبانيا",
    "iso3": "ESP",
    "num_code": 724,
    "phone_code": 34
  },
  {
    "id": 200,
    "iso": "LK",
    "name": "سيريلانكا",
    "display_name": "سيريلانكا",
    "iso3": "LKA",
    "num_code": 144,
    "phone_code": 94
  },
  {
    "id": 201,
    "iso": "SD",
    "name": "السودان",
    "display_name": "السودان",
    "iso3": "SDN",
    "num_code": 736,
    "phone_code": 249
  },
  {
    "id": 202,
    "iso": "SR",
    "name": "سورينام",
    "display_name": "سورينام",
    "iso3": "SUR",
    "num_code": 740,
    "phone_code": 597
  },
  {
    "id": 203,
    "iso": "SJ",
    "name": "سفالبارد وجان مايان",
    "display_name": "سفالبارد وجان مايان",
    "iso3": "SJM",
    "num_code": 744,
    "phone_code": 47
  },
  {
    "id": 204,
    "iso": "SZ",
    "name": "سوازيلاند",
    "display_name": "سوازيلاند",
    "iso3": "SWZ",
    "num_code": 748,
    "phone_code": 268
  },
  {
    "id": 205,
    "iso": "SE",
    "name": "السويد",
    "display_name": "السويد",
    "iso3": "SWE",
    "num_code": 752,
    "phone_code": 46
  },
  {
    "id": 206,
    "iso": "CH",
    "name": "سويسرا",
    "display_name": "سويسرا",
    "iso3": "CHE",
    "num_code": 756,
    "phone_code": 41
  },
  {
    "id": 207,
    "iso": "SY",
    "name": "الجمهورية العربية السورية",
    "display_name": "الجمهورية العربية السورية",
    "iso3": "SYR",
    "num_code": 760,
    "phone_code": 963
  },
  {
    "id": 208,
    "iso": "TW",
    "name": "تايوان ، مقاطعة الصين",
    "display_name": "تايوان ، مقاطعة الصين",
    "iso3": "TWN",
    "num_code": 158,
    "phone_code": 886
  },
  {
    "id": 209,
    "iso": "TJ",
    "name": "طاجيكستان",
    "display_name": "طاجيكستان",
    "iso3": "TJK",
    "num_code": 762,
    "phone_code": 992
  },
  {
    "id": 210,
    "iso": "TZ",
    "name": "تانزانيا، جمهورية المتحدة",
    "display_name": "تانزانيا، جمهورية المتحدة",
    "iso3": "TZA",
    "num_code": 834,
    "phone_code": 255
  },
  {
    "id": 211,
    "iso": "TH",
    "name": "تايلاند",
    "display_name": "تايلاند",
    "iso3": "THA",
    "num_code": 764,
    "phone_code": 66
  },
  {
    "id": 212,
    "iso": "TL",
    "name": "تيمور الشرقية",
    "display_name": "تيمور الشرقية",
    "iso3": null,
    "num_code": null,
    "phone_code": 670
  },
  {
    "id": 213,
    "iso": "TG",
    "name": "ليذهب",
    "display_name": "ليذهب",
    "iso3": "TGO",
    "num_code": 768,
    "phone_code": 228
  },
  {
    "id": 214,
    "iso": "TK",
    "name": "توكيلاو",
    "display_name": "توكيلاو",
    "iso3": "TKL",
    "num_code": 772,
    "phone_code": 690
  },
  {
    "id": 215,
    "iso": "TO",
    "name": "تونغا",
    "display_name": "تونغا",
    "iso3": "TON",
    "num_code": 776,
    "phone_code": 676
  },
  {
    "id": 216,
    "iso": "TT",
    "name": "ترينداد وتوباغو",
    "display_name": "ترينداد وتوباغو",
    "iso3": "TTO",
    "num_code": 780,
    "phone_code": 1868
  },
  {
    "id": 217,
    "iso": "TN",
    "name": "تونس",
    "display_name": "تونس",
    "iso3": "TUN",
    "num_code": 788,
    "phone_code": 216
  },
  {
    "id": 218,
    "iso": "TR",
    "name": "ديك رومي",
    "display_name": "ديك رومي",
    "iso3": "TUR",
    "num_code": 792,
    "phone_code": 90
  },
  {
    "id": 219,
    "iso": "TM",
    "name": "تركمانستان",
    "display_name": "تركمانستان",
    "iso3": "TKM",
    "num_code": 795,
    "phone_code": 7370
  },
  {
    "id": 220,
    "iso": "TC",
    "name": "جزر تركس وكايكوس",
    "display_name": "جزر تركس وكايكوس",
    "iso3": "TCA",
    "num_code": 796,
    "phone_code": 1649
  },
  {
    "id": 221,
    "iso": "TV",
    "name": "توفالو",
    "display_name": "توفالو",
    "iso3": "TUV",
    "num_code": 798,
    "phone_code": 688
  },
  {
    "id": 222,
    "iso": "UG",
    "name": "أوغندا",
    "display_name": "أوغندا",
    "iso3": "UGA",
    "num_code": 800,
    "phone_code": 256
  },
  {
    "id": 223,
    "iso": "UA",
    "name": "أوكرانيا",
    "display_name": "أوكرانيا",
    "iso3": "UKR",
    "num_code": 804,
    "phone_code": 380
  },
  {
    "id": 224,
    "iso": "AE",
    "name": "الإمارات العربية المتحدة",
    "display_name": "الإمارات العربية المتحدة",
    "iso3": "ARE",
    "num_code": 784,
    "phone_code": 971
  },
  {
    "id": 225,
    "iso": "GB",
    "name": "المملكة المتحدة",
    "display_name": "المملكة المتحدة",
    "iso3": "GBR",
    "num_code": 826,
    "phone_code": 44
  },
  {
    "id": 227,
    "iso": "UM",
    "name": "جزر الولايات المتحدة البعيدة الصغرى",
    "display_name": "جزر الولايات المتحدة البعيدة الصغرى",
    "iso3": null,
    "num_code": null,
    "phone_code": 1
  },
  {
    "id": 228,
    "iso": "UY",
    "name": "أوروغواي",
    "display_name": "أوروغواي",
    "iso3": "URY",
    "num_code": 858,
    "phone_code": 598
  },
  {
    "id": 229,
    "iso": "UZ",
    "name": "أوزبكستان",
    "display_name": "أوزبكستان",
    "iso3": "UZB",
    "num_code": 860,
    "phone_code": 998
  },
  {
    "id": 230,
    "iso": "VU",
    "name": "فانواتو",
    "display_name": "فانواتو",
    "iso3": "VUT",
    "num_code": 548,
    "phone_code": 678
  },
  {
    "id": 231,
    "iso": "VE",
    "name": "فنزويلا",
    "display_name": "فنزويلا",
    "iso3": "VEN",
    "num_code": 862,
    "phone_code": 58
  },
  {
    "id": 232,
    "iso": "VN",
    "name": "فييت نام",
    "display_name": "فييت نام",
    "iso3": "VNM",
    "num_code": 704,
    "phone_code": 84
  },
  {
    "id": 233,
    "iso": "VG",
    "name": "جزر العذراء البريطانية",
    "display_name": "جزر العذراء البريطانية",
    "iso3": "VGB",
    "num_code": 92,
    "phone_code": 1284
  },
  {
    "id": 234,
    "iso": "VI",
    "name": "جزر فيرجن ، الولايات المتحدة",
    "display_name": "جزر فيرجن ، الولايات المتحدة",
    "iso3": "VIR",
    "num_code": 850,
    "phone_code": 1340
  },
  {
    "id": 235,
    "iso": "WF",
    "name": "واليس وفوتونا",
    "display_name": "واليس وفوتونا",
    "iso3": "WLF",
    "num_code": 876,
    "phone_code": 681
  },
  {
    "id": 236,
    "iso": "EH",
    "name": "الصحراء الغربية",
    "display_name": "الصحراء الغربية",
    "iso3": "ESH",
    "num_code": 732,
    "phone_code": 212
  },
  {
    "id": 237,
    "iso": "YE",
    "name": "اليمن",
    "display_name": "اليمن",
    "iso3": "YEM",
    "num_code": 887,
    "phone_code": 967
  },
  {
    "id": 238,
    "iso": "ZM",
    "name": "زامبيا",
    "display_name": "زامبيا",
    "iso3": "ZMB",
    "num_code": 894,
    "phone_code": 260
  },
  {
    "id": 239,
    "iso": "ZW",
    "name": "زيمبابوي",
    "display_name": "زيمبابوي",
    "iso3": "ZWE",
    "num_code": 716,
    "phone_code": 263
  },
  {
    "id": 240,
    "iso": "DO",
    "name": "جمهورية الدومنيكان",
    "display_name": "جمهورية الدومنيكان",
    "iso3": "DOM",
    "num_code": 214,
    "phone_code": 1829
  },
  {
    "id": 241,
    "iso": "DO",
    "name": "بويرتو ريكو",
    "display_name": "بويرتو ريكو",
    "iso3": "DOM",
    "num_code": 214,
    "phone_code": 1849
  },
  {
    "id": 242,
    "iso": "PR",
    "name": "بويرتو ريكو",
    "display_name": "بويرتو ريكو",
    "iso3": "PRI",
    "num_code": 630,
    "phone_code": 1939
  }
]