[
  {
    "id": 226,
    "iso": "US",
    "name": "UNITED STATES",
    "display_name": "United States",
    "iso3": "USA",
    "num_code": 840,
    "phone_code": 1
  },
  {
    "id": 1,
    "iso": "AF",
    "name": "AFGHANISTAN",
    "display_name": "Afghanistan",
    "iso3": "AFG",
    "num_code": 4,
    "phone_code": 93
  },
  {
    "id": 2,
    "iso": "AL",
    "name": "ALBANIA",
    "display_name": "Albania",
    "iso3": "ALB",
    "num_code": 8,
    "phone_code": 355
  },
  {
    "id": 3,
    "iso": "DZ",
    "name": "ALGERIA",
    "display_name": "Algeria",
    "iso3": "DZA",
    "num_code": 12,
    "phone_code": 213
  },
  {
    "id": 4,
    "iso": "AS",
    "name": "AMERICAN SAMOA",
    "display_name": "American Samoa",
    "iso3": "ASM",
    "num_code": 16,
    "phone_code": 1684
  },
  {
    "id": 5,
    "iso": "AD",
    "name": "ANDORRA",
    "display_name": "Andorra",
    "iso3": "AND",
    "num_code": 20,
    "phone_code": 376
  },
  {
    "id": 6,
    "iso": "AO",
    "name": "ANGOLA",
    "display_name": "Angola",
    "iso3": "AGO",
    "num_code": 24,
    "phone_code": 244
  },
  {
    "id": 7,
    "iso": "AI",
    "name": "ANGUILLA",
    "display_name": "Anguilla",
    "iso3": "AIA",
    "num_code": 660,
    "phone_code": 1264
  },
  {
    "id": 8,
    "iso": "AQ",
    "name": "ANTARCTICA",
    "display_name": "Antarctica",
    "iso3": null,
    "num_code": null,
    "phone_code": 6721
  },
  {
    "id": 9,
    "iso": "AG",
    "name": "ANTIGUA AND BARBUDA",
    "display_name": "Antigua and Barbuda",
    "iso3": "ATG",
    "num_code": 28,
    "phone_code": 1268
  },
  {
    "id": 10,
    "iso": "AR",
    "name": "ARGENTINA",
    "display_name": "Argentina",
    "iso3": "ARG",
    "num_code": 32,
    "phone_code": 54
  },
  {
    "id": 11,
    "iso": "AM",
    "name": "ARMENIA",
    "display_name": "Armenia",
    "iso3": "ARM",
    "num_code": 51,
    "phone_code": 374
  },
  {
    "id": 12,
    "iso": "AW",
    "name": "ARUBA",
    "display_name": "Aruba",
    "iso3": "ABW",
    "num_code": 533,
    "phone_code": 297
  },
  {
    "id": 13,
    "iso": "AU",
    "name": "AUSTRALIA",
    "display_name": "Australia",
    "iso3": "AUS",
    "num_code": 36,
    "phone_code": 61
  },
  {
    "id": 14,
    "iso": "AT",
    "name": "AUSTRIA",
    "display_name": "Austria",
    "iso3": "AUT",
    "num_code": 40,
    "phone_code": 43
  },
  {
    "id": 15,
    "iso": "AZ",
    "name": "AZERBAIJAN",
    "display_name": "Azerbaijan",
    "iso3": "AZE",
    "num_code": 31,
    "phone_code": 994
  },
  {
    "id": 16,
    "iso": "BS",
    "name": "BAHAMAS",
    "display_name": "Bahamas",
    "iso3": "BHS",
    "num_code": 44,
    "phone_code": 1242
  },
  {
    "id": 17,
    "iso": "BH",
    "name": "BAHRAIN",
    "display_name": "Bahrain",
    "iso3": "BHR",
    "num_code": 48,
    "phone_code": 973
  },
  {
    "id": 18,
    "iso": "BD",
    "name": "BANGLADESH",
    "display_name": "Bangladesh",
    "iso3": "BGD",
    "num_code": 50,
    "phone_code": 880
  },
  {
    "id": 19,
    "iso": "BB",
    "name": "BARBADOS",
    "display_name": "Barbados",
    "iso3": "BRB",
    "num_code": 52,
    "phone_code": 1246
  },
  {
    "id": 20,
    "iso": "BY",
    "name": "BELARUS",
    "display_name": "Belarus",
    "iso3": "BLR",
    "num_code": 112,
    "phone_code": 375
  },
  {
    "id": 21,
    "iso": "BE",
    "name": "BELGIUM",
    "display_name": "Belgium",
    "iso3": "BEL",
    "num_code": 56,
    "phone_code": 32
  },
  {
    "id": 22,
    "iso": "BZ",
    "name": "BELIZE",
    "display_name": "Belize",
    "iso3": "BLZ",
    "num_code": 84,
    "phone_code": 501
  },
  {
    "id": 23,
    "iso": "BJ",
    "name": "BENIN",
    "display_name": "Benin",
    "iso3": "BEN",
    "num_code": 204,
    "phone_code": 229
  },
  {
    "id": 24,
    "iso": "BM",
    "name": "BERMUDA",
    "display_name": "Bermuda",
    "iso3": "BMU",
    "num_code": 60,
    "phone_code": 1441
  },
  {
    "id": 25,
    "iso": "BT",
    "name": "BHUTAN",
    "display_name": "Bhutan",
    "iso3": "BTN",
    "num_code": 64,
    "phone_code": 975
  },
  {
    "id": 26,
    "iso": "BO",
    "name": "BOLIVIA",
    "display_name": "Bolivia",
    "iso3": "BOL",
    "num_code": 68,
    "phone_code": 591
  },
  {
    "id": 27,
    "iso": "BA",
    "name": "BOSNIA AND HERZEGOVINA",
    "display_name": "Bosnia and Herzegovina",
    "iso3": "BIH",
    "num_code": 70,
    "phone_code": 387
  },
  {
    "id": 28,
    "iso": "BW",
    "name": "BOTSWANA",
    "display_name": "Botswana",
    "iso3": "BWA",
    "num_code": 72,
    "phone_code": 267
  },
  {
    "id": 29,
    "iso": "BV",
    "name": "BOUVET ISLAND",
    "display_name": "Bouvet Island",
    "iso3": null,
    "num_code": null,
    "phone_code": 55
  },
  {
    "id": 30,
    "iso": "BR",
    "name": "BRAZIL",
    "display_name": "Brazil",
    "iso3": "BRA",
    "num_code": 76,
    "phone_code": 55
  },
  {
    "id": 31,
    "iso": "IO",
    "name": "BRITISH INDIAN OCEAN TERRITORY",
    "display_name": "British Indian Ocean Territory",
    "iso3": null,
    "num_code": null,
    "phone_code": 246
  },
  {
    "id": 32,
    "iso": "BN",
    "name": "BRUNEI DARUSSALAM",
    "display_name": "Brunei Darussalam",
    "iso3": "BRN",
    "num_code": 96,
    "phone_code": 673
  },
  {
    "id": 33,
    "iso": "BG",
    "name": "BULGARIA",
    "display_name": "Bulgaria",
    "iso3": "BGR",
    "num_code": 100,
    "phone_code": 359
  },
  {
    "id": 34,
    "iso": "BF",
    "name": "BURKINA FASO",
    "display_name": "Burkina Faso",
    "iso3": "BFA",
    "num_code": 854,
    "phone_code": 226
  },
  {
    "id": 35,
    "iso": "BI",
    "name": "BURUNDI",
    "display_name": "Burundi",
    "iso3": "BDI",
    "num_code": 108,
    "phone_code": 257
  },
  {
    "id": 36,
    "iso": "KH",
    "name": "CAMBODIA",
    "display_name": "Cambodia",
    "iso3": "KHM",
    "num_code": 116,
    "phone_code": 855
  },
  {
    "id": 37,
    "iso": "CM",
    "name": "CAMEROON",
    "display_name": "Cameroon",
    "iso3": "CMR",
    "num_code": 120,
    "phone_code": 237
  },
  {
    "id": 38,
    "iso": "CA",
    "name": "CANADA",
    "display_name": "Canada",
    "iso3": "CAN",
    "num_code": 124,
    "phone_code": 1
  },
  {
    "id": 39,
    "iso": "CV",
    "name": "CAPE VERDE",
    "display_name": "Cape Verde",
    "iso3": "CPV",
    "num_code": 132,
    "phone_code": 238
  },
  {
    "id": 40,
    "iso": "KY",
    "name": "CAYMAN ISLANDS",
    "display_name": "Cayman Islands",
    "iso3": "CYM",
    "num_code": 136,
    "phone_code": 1345
  },
  {
    "id": 41,
    "iso": "CF",
    "name": "CENTRAL AFRICAN REPUBLIC",
    "display_name": "Central African Republic",
    "iso3": "CAF",
    "num_code": 140,
    "phone_code": 236
  },
  {
    "id": 42,
    "iso": "TD",
    "name": "CHAD",
    "display_name": "Chad",
    "iso3": "TCD",
    "num_code": 148,
    "phone_code": 235
  },
  {
    "id": 43,
    "iso": "CL",
    "name": "CHILE",
    "display_name": "Chile",
    "iso3": "CHL",
    "num_code": 152,
    "phone_code": 56
  },
  {
    "id": 44,
    "iso": "CN",
    "name": "CHINA",
    "display_name": "China",
    "iso3": "CHN",
    "num_code": 156,
    "phone_code": 86
  },
  {
    "id": 45,
    "iso": "CX",
    "name": "CHRISTMAS ISLAND",
    "display_name": "Christmas Island",
    "iso3": null,
    "num_code": null,
    "phone_code": 61
  },
  {
    "id": 46,
    "iso": "CC",
    "name": "COCOS (KEELING) ISLANDS",
    "display_name": "Cocos (Keeling) Islands",
    "iso3": null,
    "num_code": null,
    "phone_code": 891
  },
  {
    "id": 47,
    "iso": "CO",
    "name": "COLOMBIA",
    "display_name": "Colombia",
    "iso3": "COL",
    "num_code": 170,
    "phone_code": 57
  },
  {
    "id": 48,
    "iso": "KM",
    "name": "COMOROS",
    "display_name": "Comoros",
    "iso3": "COM",
    "num_code": 174,
    "phone_code": 269
  },
  {
    "id": 49,
    "iso": "CG",
    "name": "CONGO",
    "display_name": "Congo",
    "iso3": "COG",
    "num_code": 178,
    "phone_code": 242
  },
  {
    "id": 50,
    "iso": "CD",
    "name": "CONGO, THE DEMOCRATIC REPUBLIC OF THE",
    "display_name": "Congo, the Democratic Republic of the",
    "iso3": "COD",
    "num_code": 180,
    "phone_code": 242
  },
  {
    "id": 51,
    "iso": "CK",
    "name": "COOK ISLANDS",
    "display_name": "Cook Islands",
    "iso3": "COK",
    "num_code": 184,
    "phone_code": 682
  },
  {
    "id": 52,
    "iso": "CR",
    "name": "COSTA RICA",
    "display_name": "Costa Rica",
    "iso3": "CRI",
    "num_code": 188,
    "phone_code": 506
  },
  {
    "id": 53,
    "iso": "CI",
    "name": "COTE D'IVOIRE",
    "display_name": "Cote D'Ivoire",
    "iso3": "CIV",
    "num_code": 384,
    "phone_code": 225
  },
  {
    "id": 54,
    "iso": "HR",
    "name": "CROATIA",
    "display_name": "Croatia",
    "iso3": "HRV",
    "num_code": 191,
    "phone_code": 385
  },
  {
    "id": 55,
    "iso": "CU",
    "name": "CUBA",
    "display_name": "Cuba",
    "iso3": "CUB",
    "num_code": 192,
    "phone_code": 53
  },
  {
    "id": 56,
    "iso": "CY",
    "name": "CYPRUS",
    "display_name": "Cyprus",
    "iso3": "CYP",
    "num_code": 196,
    "phone_code": 357
  },
  {
    "id": 57,
    "iso": "CZ",
    "name": "CZECH REPUBLIC",
    "display_name": "Czech Republic",
    "iso3": "CZE",
    "num_code": 203,
    "phone_code": 420
  },
  {
    "id": 58,
    "iso": "DK",
    "name": "DENMARK",
    "display_name": "Denmark",
    "iso3": "DNK",
    "num_code": 208,
    "phone_code": 45
  },
  {
    "id": 59,
    "iso": "DJ",
    "name": "DJIBOUTI",
    "display_name": "Djibouti",
    "iso3": "DJI",
    "num_code": 262,
    "phone_code": 253
  },
  {
    "id": 60,
    "iso": "DM",
    "name": "DOMINICA",
    "display_name": "Dominica",
    "iso3": "DMA",
    "num_code": 212,
    "phone_code": 1767
  },
  {
    "id": 61,
    "iso": "DO",
    "name": "DOMINICAN REPUBLIC",
    "display_name": "Dominican Republic",
    "iso3": "DOM",
    "num_code": 214,
    "phone_code": 1809
  },
  {
    "id": 62,
    "iso": "EC",
    "name": "ECUADOR",
    "display_name": "Ecuador",
    "iso3": "ECU",
    "num_code": 218,
    "phone_code": 593
  },
  {
    "id": 63,
    "iso": "EG",
    "name": "EGYPT",
    "display_name": "Egypt",
    "iso3": "EGY",
    "num_code": 818,
    "phone_code": 20
  },
  {
    "id": 64,
    "iso": "SV",
    "name": "EL SALVADOR",
    "display_name": "El Salvador",
    "iso3": "SLV",
    "num_code": 222,
    "phone_code": 503
  },
  {
    "id": 65,
    "iso": "GQ",
    "name": "EQUATORIAL GUINEA",
    "display_name": "Equatorial Guinea",
    "iso3": "GNQ",
    "num_code": 226,
    "phone_code": 240
  },
  {
    "id": 66,
    "iso": "ER",
    "name": "ERITREA",
    "display_name": "Eritrea",
    "iso3": "ERI",
    "num_code": 232,
    "phone_code": 291
  },
  {
    "id": 67,
    "iso": "EE",
    "name": "ESTONIA",
    "display_name": "Estonia",
    "iso3": "EST",
    "num_code": 233,
    "phone_code": 372
  },
  {
    "id": 68,
    "iso": "ET",
    "name": "ETHIOPIA",
    "display_name": "Ethiopia",
    "iso3": "ETH",
    "num_code": 231,
    "phone_code": 251
  },
  {
    "id": 69,
    "iso": "FK",
    "name": "FALKLAND ISLANDS (MALVINAS)",
    "display_name": "Falkland Islands (Malvinas)",
    "iso3": "FLK",
    "num_code": 238,
    "phone_code": 500
  },
  {
    "id": 70,
    "iso": "FO",
    "name": "FAROE ISLANDS",
    "display_name": "Faroe Islands",
    "iso3": "FRO",
    "num_code": 234,
    "phone_code": 298
  },
  {
    "id": 71,
    "iso": "FJ",
    "name": "FIJI",
    "display_name": "Fiji",
    "iso3": "FJI",
    "num_code": 242,
    "phone_code": 679
  },
  {
    "id": 72,
    "iso": "FI",
    "name": "FINLAND",
    "display_name": "Finland",
    "iso3": "FIN",
    "num_code": 246,
    "phone_code": 358
  },
  {
    "id": 73,
    "iso": "FR",
    "name": "FRANCE",
    "display_name": "France",
    "iso3": "FRA",
    "num_code": 250,
    "phone_code": 33
  },
  {
    "id": 74,
    "iso": "GF",
    "name": "FRENCH GUIANA",
    "display_name": "French Guiana",
    "iso3": "GUF",
    "num_code": 254,
    "phone_code": 594
  },
  {
    "id": 75,
    "iso": "PF",
    "name": "FRENCH POLYNESIA",
    "display_name": "French Polynesia",
    "iso3": "PYF",
    "num_code": 258,
    "phone_code": 689
  },
  {
    "id": 76,
    "iso": "TF",
    "name": "FRENCH SOUTHERN TERRITORIES",
    "display_name": "French Southern Territories",
    "iso3": null,
    "num_code": null,
    "phone_code": 0
  },
  {
    "id": 77,
    "iso": "GA",
    "name": "GABON",
    "display_name": "Gabon",
    "iso3": "GAB",
    "num_code": 266,
    "phone_code": 241
  },
  {
    "id": 78,
    "iso": "GM",
    "name": "GAMBIA",
    "display_name": "Gambia",
    "iso3": "GMB",
    "num_code": 270,
    "phone_code": 220
  },
  {
    "id": 79,
    "iso": "GE",
    "name": "GEORGIA",
    "display_name": "Georgia",
    "iso3": "GEO",
    "num_code": 268,
    "phone_code": 995
  },
  {
    "id": 80,
    "iso": "DE",
    "name": "GERMANY",
    "display_name": "Germany",
    "iso3": "DEU",
    "num_code": 276,
    "phone_code": 49
  },
  {
    "id": 81,
    "iso": "GH",
    "name": "GHANA",
    "display_name": "Ghana",
    "iso3": "GHA",
    "num_code": 288,
    "phone_code": 233
  },
  {
    "id": 82,
    "iso": "GI",
    "name": "GIBRALTAR",
    "display_name": "Gibraltar",
    "iso3": "GIB",
    "num_code": 292,
    "phone_code": 350
  },
  {
    "id": 83,
    "iso": "GR",
    "name": "GREECE",
    "display_name": "Greece",
    "iso3": "GRC",
    "num_code": 300,
    "phone_code": 30
  },
  {
    "id": 84,
    "iso": "GL",
    "name": "GREENLAND",
    "display_name": "Greenland",
    "iso3": "GRL",
    "num_code": 304,
    "phone_code": 299
  },
  {
    "id": 85,
    "iso": "GD",
    "name": "GRENADA",
    "display_name": "Grenada",
    "iso3": "GRD",
    "num_code": 308,
    "phone_code": 1473
  },
  {
    "id": 86,
    "iso": "GP",
    "name": "GUADELOUPE",
    "display_name": "Guadeloupe",
    "iso3": "GLP",
    "num_code": 312,
    "phone_code": 590
  },
  {
    "id": 87,
    "iso": "GU",
    "name": "GUAM",
    "display_name": "Guam",
    "iso3": "GUM",
    "num_code": 316,
    "phone_code": 1671
  },
  {
    "id": 88,
    "iso": "GT",
    "name": "GUATEMALA",
    "display_name": "Guatemala",
    "iso3": "GTM",
    "num_code": 320,
    "phone_code": 502
  },
  {
    "id": 89,
    "iso": "GN",
    "name": "GUINEA",
    "display_name": "Guinea",
    "iso3": "GIN",
    "num_code": 324,
    "phone_code": 224
  },
  {
    "id": 90,
    "iso": "GW",
    "name": "GUINEA-BISSAU",
    "display_name": "Guinea-Bissau",
    "iso3": "GNB",
    "num_code": 624,
    "phone_code": 245
  },
  {
    "id": 91,
    "iso": "GY",
    "name": "GUYANA",
    "display_name": "Guyana",
    "iso3": "GUY",
    "num_code": 328,
    "phone_code": 592
  },
  {
    "id": 92,
    "iso": "HT",
    "name": "HAITI",
    "display_name": "Haiti",
    "iso3": "HTI",
    "num_code": 332,
    "phone_code": 509
  },
  {
    "id": 93,
    "iso": "HM",
    "name": "HEARD ISLAND AND MCDONALD ISLANDS",
    "display_name": "Heard Island and Mcdonald Islands",
    "iso3": null,
    "num_code": null,
    "phone_code": 672
  },
  {
    "id": 94,
    "iso": "VA",
    "name": "HOLY SEE (VATICAN CITY STATE)",
    "display_name": "Holy See (Vatican City State)",
    "iso3": "VAT",
    "num_code": 336,
    "phone_code": 39
  },
  {
    "id": 95,
    "iso": "HN",
    "name": "HONDURAS",
    "display_name": "Honduras",
    "iso3": "HND",
    "num_code": 340,
    "phone_code": 504
  },
  {
    "id": 96,
    "iso": "HK",
    "name": "HONG KONG",
    "display_name": "Hong Kong",
    "iso3": "HKG",
    "num_code": 344,
    "phone_code": 852
  },
  {
    "id": 97,
    "iso": "HU",
    "name": "HUNGARY",
    "display_name": "Hungary",
    "iso3": "HUN",
    "num_code": 348,
    "phone_code": 36
  },
  {
    "id": 98,
    "iso": "IS",
    "name": "ICELAND",
    "display_name": "Iceland",
    "iso3": "ISL",
    "num_code": 352,
    "phone_code": 354
  },
  {
    "id": 99,
    "iso": "IN",
    "name": "INDIA",
    "display_name": "India",
    "iso3": "IND",
    "num_code": 356,
    "phone_code": 91
  },
  {
    "id": 100,
    "iso": "ID",
    "name": "INDONESIA",
    "display_name": "Indonesia",
    "iso3": "IDN",
    "num_code": 360,
    "phone_code": 62
  },
  {
    "id": 101,
    "iso": "IR",
    "name": "IRAN, ISLAMIC REPUBLIC OF",
    "display_name": "Iran, Islamic Republic of",
    "iso3": "IRN",
    "num_code": 364,
    "phone_code": 98
  },
  {
    "id": 102,
    "iso": "IQ",
    "name": "IRAQ",
    "display_name": "Iraq",
    "iso3": "IRQ",
    "num_code": 368,
    "phone_code": 964
  },
  {
    "id": 103,
    "iso": "IE",
    "name": "IRELAND",
    "display_name": "Ireland",
    "iso3": "IRL",
    "num_code": 372,
    "phone_code": 353
  },
  {
    "id": 104,
    "iso": "IL",
    "name": "ISRAEL",
    "display_name": "Israel",
    "iso3": "ISR",
    "num_code": 376,
    "phone_code": 972
  },
  {
    "id": 105,
    "iso": "IT",
    "name": "ITALY",
    "display_name": "Italy",
    "iso3": "ITA",
    "num_code": 380,
    "phone_code": 39
  },
  {
    "id": 106,
    "iso": "JM",
    "name": "JAMAICA",
    "display_name": "Jamaica",
    "iso3": "JAM",
    "num_code": 388,
    "phone_code": 1876
  },
  {
    "id": 107,
    "iso": "JP",
    "name": "JAPAN",
    "display_name": "Japan",
    "iso3": "JPN",
    "num_code": 392,
    "phone_code": 81
  },
  {
    "id": 108,
    "iso": "JO",
    "name": "JORDAN",
    "display_name": "Jordan",
    "iso3": "JOR",
    "num_code": 400,
    "phone_code": 962
  },
  {
    "id": 109,
    "iso": "KZ",
    "name": "KAZAKHSTAN",
    "display_name": "Kazakhstan",
    "iso3": "KAZ",
    "num_code": 398,
    "phone_code": 7
  },
  {
    "id": 110,
    "iso": "KE",
    "name": "KENYA",
    "display_name": "Kenya",
    "iso3": "KEN",
    "num_code": 404,
    "phone_code": 254
  },
  {
    "id": 111,
    "iso": "KI",
    "name": "KIRIBATI",
    "display_name": "Kiribati",
    "iso3": "KIR",
    "num_code": 296,
    "phone_code": 686
  },
  {
    "id": 112,
    "iso": "KP",
    "name": "KOREA, DEMOCRATIC PEOPLE'S REPUBLIC OF",
    "display_name": "Korea, Democratic People's Republic of",
    "iso3": "PRK",
    "num_code": 408,
    "phone_code": 850
  },
  {
    "id": 113,
    "iso": "KR",
    "name": "KOREA, REPUBLIC OF",
    "display_name": "Korea, Republic of",
    "iso3": "KOR",
    "num_code": 410,
    "phone_code": 82
  },
  {
    "id": 114,
    "iso": "KW",
    "name": "KUWAIT",
    "display_name": "Kuwait",
    "iso3": "KWT",
    "num_code": 414,
    "phone_code": 965
  },
  {
    "id": 115,
    "iso": "KG",
    "name": "KYRGYZSTAN",
    "display_name": "Kyrgyzstan",
    "iso3": "KGZ",
    "num_code": 417,
    "phone_code": 996
  },
  {
    "id": 116,
    "iso": "LA",
    "name": "LAO PEOPLE'S DEMOCRATIC REPUBLIC",
    "display_name": "Lao People's Democratic Republic",
    "iso3": "LAO",
    "num_code": 418,
    "phone_code": 856
  },
  {
    "id": 117,
    "iso": "LV",
    "name": "LATVIA",
    "display_name": "Latvia",
    "iso3": "LVA",
    "num_code": 428,
    "phone_code": 371
  },
  {
    "id": 118,
    "iso": "LB",
    "name": "LEBANON",
    "display_name": "Lebanon",
    "iso3": "LBN",
    "num_code": 422,
    "phone_code": 961
  },
  {
    "id": 119,
    "iso": "LS",
    "name": "LESOTHO",
    "display_name": "Lesotho",
    "iso3": "LSO",
    "num_code": 426,
    "phone_code": 266
  },
  {
    "id": 120,
    "iso": "LR",
    "name": "LIBERIA",
    "display_name": "Liberia",
    "iso3": "LBR",
    "num_code": 430,
    "phone_code": 231
  },
  {
    "id": 121,
    "iso": "LY",
    "name": "LIBYAN ARAB JAMAHIRIYA",
    "display_name": "Libyan Arab Jamahiriya",
    "iso3": "LBY",
    "num_code": 434,
    "phone_code": 218
  },
  {
    "id": 122,
    "iso": "LI",
    "name": "LIECHTENSTEIN",
    "display_name": "Liechtenstein",
    "iso3": "LIE",
    "num_code": 438,
    "phone_code": 423
  },
  {
    "id": 123,
    "iso": "LT",
    "name": "LITHUANIA",
    "display_name": "Lithuania",
    "iso3": "LTU",
    "num_code": 440,
    "phone_code": 370
  },
  {
    "id": 124,
    "iso": "LU",
    "name": "LUXEMBOURG",
    "display_name": "Luxembourg",
    "iso3": "LUX",
    "num_code": 442,
    "phone_code": 352
  },
  {
    "id": 125,
    "iso": "MO",
    "name": "MACAO",
    "display_name": "Macao",
    "iso3": "MAC",
    "num_code": 446,
    "phone_code": 853
  },
  {
    "id": 126,
    "iso": "MK",
    "name": "MACEDONIA, THE FORMER YUGOSLAV REPUBLIC OF",
    "display_name": "Macedonia, the Former Yugoslav Republic of",
    "iso3": "MKD",
    "num_code": 807,
    "phone_code": 389
  },
  {
    "id": 127,
    "iso": "MG",
    "name": "MADAGASCAR",
    "display_name": "Madagascar",
    "iso3": "MDG",
    "num_code": 450,
    "phone_code": 261
  },
  {
    "id": 128,
    "iso": "MW",
    "name": "MALAWI",
    "display_name": "Malawi",
    "iso3": "MWI",
    "num_code": 454,
    "phone_code": 265
  },
  {
    "id": 129,
    "iso": "MY",
    "name": "MALAYSIA",
    "display_name": "Malaysia",
    "iso3": "MYS",
    "num_code": 458,
    "phone_code": 60
  },
  {
    "id": 130,
    "iso": "MV",
    "name": "MALDIVES",
    "display_name": "Maldives",
    "iso3": "MDV",
    "num_code": 462,
    "phone_code": 960
  },
  {
    "id": 131,
    "iso": "ML",
    "name": "MALI",
    "display_name": "Mali",
    "iso3": "MLI",
    "num_code": 466,
    "phone_code": 223
  },
  {
    "id": 132,
    "iso": "MT",
    "name": "MALTA",
    "display_name": "Malta",
    "iso3": "MLT",
    "num_code": 470,
    "phone_code": 356
  },
  {
    "id": 133,
    "iso": "MH",
    "name": "MARSHALL ISLANDS",
    "display_name": "Marshall Islands",
    "iso3": "MHL",
    "num_code": 584,
    "phone_code": 692
  },
  {
    "id": 134,
    "iso": "MQ",
    "name": "MARTINIQUE",
    "display_name": "Martinique",
    "iso3": "MTQ",
    "num_code": 474,
    "phone_code": 596
  },
  {
    "id": 135,
    "iso": "MR",
    "name": "MAURITANIA",
    "display_name": "Mauritania",
    "iso3": "MRT",
    "num_code": 478,
    "phone_code": 222
  },
  {
    "id": 136,
    "iso": "MU",
    "name": "MAURITIUS",
    "display_name": "Mauritius",
    "iso3": "MUS",
    "num_code": 480,
    "phone_code": 230
  },
  {
    "id": 137,
    "iso": "YT",
    "name": "MAYOTTE",
    "display_name": "Mayotte",
    "iso3": null,
    "num_code": null,
    "phone_code": 269
  },
  {
    "id": 138,
    "iso": "MX",
    "name": "MEXICO",
    "display_name": "Mexico",
    "iso3": "MEX",
    "num_code": 484,
    "phone_code": 52
  },
  {
    "id": 139,
    "iso": "FM",
    "name": "MICRONESIA, FEDERATED STATES OF",
    "display_name": "Micronesia, Federated States of",
    "iso3": "FSM",
    "num_code": 583,
    "phone_code": 691
  },
  {
    "id": 140,
    "iso": "MD",
    "name": "MOLDOVA, REPUBLIC OF",
    "display_name": "Moldova, Republic of",
    "iso3": "MDA",
    "num_code": 498,
    "phone_code": 373
  },
  {
    "id": 141,
    "iso": "MC",
    "name": "MONACO",
    "display_name": "Monaco",
    "iso3": "MCO",
    "num_code": 492,
    "phone_code": 377
  },
  {
    "id": 142,
    "iso": "MN",
    "name": "MONGOLIA",
    "display_name": "Mongolia",
    "iso3": "MNG",
    "num_code": 496,
    "phone_code": 976
  },
  {
    "id": 143,
    "iso": "MS",
    "name": "MONTSERRAT",
    "display_name": "Montserrat",
    "iso3": "MSR",
    "num_code": 500,
    "phone_code": 1664
  },
  {
    "id": 144,
    "iso": "MA",
    "name": "MOROCCO",
    "display_name": "Morocco",
    "iso3": "MAR",
    "num_code": 504,
    "phone_code": 212
  },
  {
    "id": 145,
    "iso": "MZ",
    "name": "MOZAMBIQUE",
    "display_name": "Mozambique",
    "iso3": "MOZ",
    "num_code": 508,
    "phone_code": 258
  },
  {
    "id": 146,
    "iso": "MM",
    "name": "MYANMAR",
    "display_name": "Myanmar",
    "iso3": "MMR",
    "num_code": 104,
    "phone_code": 95
  },
  {
    "id": 147,
    "iso": "NA",
    "name": "NAMIBIA",
    "display_name": "Namibia",
    "iso3": "NAM",
    "num_code": 516,
    "phone_code": 264
  },
  {
    "id": 148,
    "iso": "NR",
    "name": "NAURU",
    "display_name": "Nauru",
    "iso3": "NRU",
    "num_code": 520,
    "phone_code": 674
  },
  {
    "id": 149,
    "iso": "NP",
    "name": "NEPAL",
    "display_name": "Nepal",
    "iso3": "NPL",
    "num_code": 524,
    "phone_code": 977
  },
  {
    "id": 150,
    "iso": "NL",
    "name": "NETHERLANDS",
    "display_name": "Netherlands",
    "iso3": "NLD",
    "num_code": 528,
    "phone_code": 31
  },
  {
    "id": 151,
    "iso": "AN",
    "name": "NETHERLANDS ANTILLES",
    "display_name": "Netherlands Antilles",
    "iso3": "ANT",
    "num_code": 530,
    "phone_code": 599
  },
  {
    "id": 152,
    "iso": "NC",
    "name": "NEW CALEDONIA",
    "display_name": "New Caledonia",
    "iso3": "NCL",
    "num_code": 540,
    "phone_code": 687
  },
  {
    "id": 153,
    "iso": "NZ",
    "name": "NEW ZEALAND",
    "display_name": "New Zealand",
    "iso3": "NZL",
    "num_code": 554,
    "phone_code": 64
  },
  {
    "id": 154,
    "iso": "NI",
    "name": "NICARAGUA",
    "display_name": "Nicaragua",
    "iso3": "NIC",
    "num_code": 558,
    "phone_code": 505
  },
  {
    "id": 155,
    "iso": "NE",
    "name": "NIGER",
    "display_name": "Niger",
    "iso3": "NER",
    "num_code": 562,
    "phone_code": 227
  },
  {
    "id": 156,
    "iso": "NG",
    "name": "NIGERIA",
    "display_name": "Nigeria",
    "iso3": "NGA",
    "num_code": 566,
    "phone_code": 234
  },
  {
    "id": 157,
    "iso": "NU",
    "name": "NIUE",
    "display_name": "Niue",
    "iso3": "NIU",
    "num_code": 570,
    "phone_code": 683
  },
  {
    "id": 158,
    "iso": "NF",
    "name": "NORFOLK ISLAND",
    "display_name": "Norfolk Island",
    "iso3": "NFK",
    "num_code": 574,
    "phone_code": 672
  },
  {
    "id": 159,
    "iso": "MP",
    "name": "NORTHERN MARIANA ISLANDS",
    "display_name": "Northern Mariana Islands",
    "iso3": "MNP",
    "num_code": 580,
    "phone_code": 1670
  },
  {
    "id": 160,
    "iso": "NO",
    "name": "NORWAY",
    "display_name": "Norway",
    "iso3": "NOR",
    "num_code": 578,
    "phone_code": 47
  },
  {
    "id": 161,
    "iso": "OM",
    "name": "OMAN",
    "display_name": "Oman",
    "iso3": "OMN",
    "num_code": 512,
    "phone_code": 968
  },
  {
    "id": 162,
    "iso": "PK",
    "name": "PAKISTAN",
    "display_name": "Pakistan",
    "iso3": "PAK",
    "num_code": 586,
    "phone_code": 92
  },
  {
    "id": 163,
    "iso": "PW",
    "name": "PALAU",
    "display_name": "Palau",
    "iso3": "PLW",
    "num_code": 585,
    "phone_code": 680
  },
  {
    "id": 164,
    "iso": "PS",
    "name": "PALESTINIAN TERRITORY, OCCUPIED",
    "display_name": "Palestinian Territory, Occupied",
    "iso3": null,
    "num_code": null,
    "phone_code": 970
  },
  {
    "id": 165,
    "iso": "PA",
    "name": "PANAMA",
    "display_name": "Panama",
    "iso3": "PAN",
    "num_code": 591,
    "phone_code": 507
  },
  {
    "id": 166,
    "iso": "PG",
    "name": "PAPUA NEW GUINEA",
    "display_name": "Papua New Guinea",
    "iso3": "PNG",
    "num_code": 598,
    "phone_code": 675
  },
  {
    "id": 167,
    "iso": "PY",
    "name": "PARAGUAY",
    "display_name": "Paraguay",
    "iso3": "PRY",
    "num_code": 600,
    "phone_code": 595
  },
  {
    "id": 168,
    "iso": "PE",
    "name": "PERU",
    "display_name": "Peru",
    "iso3": "PER",
    "num_code": 604,
    "phone_code": 51
  },
  {
    "id": 169,
    "iso": "PH",
    "name": "PHILIPPINES",
    "display_name": "Philippines",
    "iso3": "PHL",
    "num_code": 608,
    "phone_code": 63
  },
  {
    "id": 170,
    "iso": "PN",
    "name": "PITCAIRN",
    "display_name": "Pitcairn",
    "iso3": "PCN",
    "num_code": 612,
    "phone_code": 64
  },
  {
    "id": 171,
    "iso": "PL",
    "name": "POLAND",
    "display_name": "Poland",
    "iso3": "POL",
    "num_code": 616,
    "phone_code": 48
  },
  {
    "id": 172,
    "iso": "PT",
    "name": "PORTUGAL",
    "display_name": "Portugal",
    "iso3": "PRT",
    "num_code": 620,
    "phone_code": 351
  },
  {
    "id": 173,
    "iso": "PR",
    "name": "PUERTO RICO",
    "display_name": "Puerto Rico",
    "iso3": "PRI",
    "num_code": 630,
    "phone_code": 1787
  },
  {
    "id": 174,
    "iso": "QA",
    "name": "QATAR",
    "display_name": "Qatar",
    "iso3": "QAT",
    "num_code": 634,
    "phone_code": 974
  },
  {
    "id": 175,
    "iso": "RE",
    "name": "REUNION",
    "display_name": "Reunion",
    "iso3": "REU",
    "num_code": 638,
    "phone_code": 262
  },
  {
    "id": 176,
    "iso": "RO",
    "name": "ROMANIA",
    "display_name": "Romania",
    "iso3": "ROM",
    "num_code": 642,
    "phone_code": 40
  },
  {
    "id": 177,
    "iso": "RU",
    "name": "RUSSIAN FEDERATION",
    "display_name": "Russian Federation",
    "iso3": "RUS",
    "num_code": 643,
    "phone_code": 70
  },
  {
    "id": 178,
    "iso": "RW",
    "name": "RWANDA",
    "display_name": "Rwanda",
    "iso3": "RWA",
    "num_code": 646,
    "phone_code": 250
  },
  {
    "id": 179,
    "iso": "SH",
    "name": "SAINT HELENA",
    "display_name": "Saint Helena",
    "iso3": "SHN",
    "num_code": 654,
    "phone_code": 290
  },
  {
    "id": 180,
    "iso": "KN",
    "name": "SAINT KITTS AND NEVIS",
    "display_name": "Saint Kitts and Nevis",
    "iso3": "KNA",
    "num_code": 659,
    "phone_code": 1869
  },
  {
    "id": 181,
    "iso": "LC",
    "name": "SAINT LUCIA",
    "display_name": "Saint Lucia",
    "iso3": "LCA",
    "num_code": 662,
    "phone_code": 1758
  },
  {
    "id": 182,
    "iso": "PM",
    "name": "SAINT PIERRE AND MIQUELON",
    "display_name": "Saint Pierre and Miquelon",
    "iso3": "SPM",
    "num_code": 666,
    "phone_code": 508
  },
  {
    "id": 183,
    "iso": "VC",
    "name": "SAINT VINCENT AND THE GRENADINES",
    "display_name": "Saint Vincent and the Grenadines",
    "iso3": "VCT",
    "num_code": 670,
    "phone_code": 1784
  },
  {
    "id": 184,
    "iso": "WS",
    "name": "SAMOA",
    "display_name": "Samoa",
    "iso3": "WSM",
    "num_code": 882,
    "phone_code": 684
  },
  {
    "id": 185,
    "iso": "SM",
    "name": "SAN MARINO",
    "display_name": "San Marino",
    "iso3": "SMR",
    "num_code": 674,
    "phone_code": 378
  },
  {
    "id": 186,
    "iso": "ST",
    "name": "SAO TOME AND PRINCIPE",
    "display_name": "Sao Tome and Principe",
    "iso3": "STP",
    "num_code": 678,
    "phone_code": 239
  },
  {
    "id": 187,
    "iso": "SA",
    "name": "SAUDI ARABIA",
    "display_name": "Saudi Arabia",
    "iso3": "SAU",
    "num_code": 682,
    "phone_code": 966
  },
  {
    "id": 188,
    "iso": "SN",
    "name": "SENEGAL",
    "display_name": "Senegal",
    "iso3": "SEN",
    "num_code": 686,
    "phone_code": 221
  },
  {
    "id": 189,
    "iso": "CS",
    "name": "SERBIA AND MONTENEGRO",
    "display_name": "Serbia and Montenegro",
    "iso3": null,
    "num_code": null,
    "phone_code": 381
  },
  {
    "id": 190,
    "iso": "SC",
    "name": "SEYCHELLES",
    "display_name": "Seychelles",
    "iso3": "SYC",
    "num_code": 690,
    "phone_code": 248
  },
  {
    "id": 191,
    "iso": "SL",
    "name": "SIERRA LEONE",
    "display_name": "Sierra Leone",
    "iso3": "SLE",
    "num_code": 694,
    "phone_code": 232
  },
  {
    "id": 192,
    "iso": "SG",
    "name": "SINGAPORE",
    "display_name": "Singapore",
    "iso3": "SGP",
    "num_code": 702,
    "phone_code": 65
  },
  {
    "id": 193,
    "iso": "SK",
    "name": "SLOVAKIA",
    "display_name": "Slovakia",
    "iso3": "SVK",
    "num_code": 703,
    "phone_code": 421
  },
  {
    "id": 194,
    "iso": "SI",
    "name": "SLOVENIA",
    "display_name": "Slovenia",
    "iso3": "SVN",
    "num_code": 705,
    "phone_code": 386
  },
  {
    "id": 195,
    "iso": "SB",
    "name": "SOLOMON ISLANDS",
    "display_name": "Solomon Islands",
    "iso3": "SLB",
    "num_code": 90,
    "phone_code": 677
  },
  {
    "id": 196,
    "iso": "SO",
    "name": "SOMALIA",
    "display_name": "Somalia",
    "iso3": "SOM",
    "num_code": 706,
    "phone_code": 252
  },
  {
    "id": 197,
    "iso": "ZA",
    "name": "SOUTH AFRICA",
    "display_name": "South Africa",
    "iso3": "ZAF",
    "num_code": 710,
    "phone_code": 27
  },
  {
    "id": 198,
    "iso": "GS",
    "name": "SOUTH GEORGIA AND THE SOUTH SANDWICH ISLANDS",
    "display_name": "South Georgia and the South Sandwich Islands",
    "iso3": null,
    "num_code": null,
    "phone_code": 995
  },
  {
    "id": 199,
    "iso": "ES",
    "name": "SPAIN",
    "display_name": "Spain",
    "iso3": "ESP",
    "num_code": 724,
    "phone_code": 34
  },
  {
    "id": 200,
    "iso": "LK",
    "name": "SRI LANKA",
    "display_name": "Sri Lanka",
    "iso3": "LKA",
    "num_code": 144,
    "phone_code": 94
  },
  {
    "id": 201,
    "iso": "SD",
    "name": "SUDAN",
    "display_name": "Sudan",
    "iso3": "SDN",
    "num_code": 736,
    "phone_code": 249
  },
  {
    "id": 202,
    "iso": "SR",
    "name": "SURINAME",
    "display_name": "Suriname",
    "iso3": "SUR",
    "num_code": 740,
    "phone_code": 597
  },
  {
    "id": 203,
    "iso": "SJ",
    "name": "SVALBARD AND JAN MAYEN",
    "display_name": "Svalbard and Jan Mayen",
    "iso3": "SJM",
    "num_code": 744,
    "phone_code": 47
  },
  {
    "id": 204,
    "iso": "SZ",
    "name": "SWAZILAND",
    "display_name": "Swaziland",
    "iso3": "SWZ",
    "num_code": 748,
    "phone_code": 268
  },
  {
    "id": 205,
    "iso": "SE",
    "name": "SWEDEN",
    "display_name": "Sweden",
    "iso3": "SWE",
    "num_code": 752,
    "phone_code": 46
  },
  {
    "id": 206,
    "iso": "CH",
    "name": "SWITZERLAND",
    "display_name": "Switzerland",
    "iso3": "CHE",
    "num_code": 756,
    "phone_code": 41
  },
  {
    "id": 207,
    "iso": "SY",
    "name": "SYRIAN ARAB REPUBLIC",
    "display_name": "Syrian Arab Republic",
    "iso3": "SYR",
    "num_code": 760,
    "phone_code": 963
  },
  {
    "id": 208,
    "iso": "TW",
    "name": "TAIWAN, PROVINCE OF CHINA",
    "display_name": "Taiwan, Province of China",
    "iso3": "TWN",
    "num_code": 158,
    "phone_code": 886
  },
  {
    "id": 209,
    "iso": "TJ",
    "name": "TAJIKISTAN",
    "display_name": "Tajikistan",
    "iso3": "TJK",
    "num_code": 762,
    "phone_code": 992
  },
  {
    "id": 210,
    "iso": "TZ",
    "name": "TANZANIA, UNITED REPUBLIC OF",
    "display_name": "Tanzania, United Republic of",
    "iso3": "TZA",
    "num_code": 834,
    "phone_code": 255
  },
  {
    "id": 211,
    "iso": "TH",
    "name": "THAILAND",
    "display_name": "Thailand",
    "iso3": "THA",
    "num_code": 764,
    "phone_code": 66
  },
  {
    "id": 212,
    "iso": "TL",
    "name": "TIMOR-LESTE",
    "display_name": "Timor-Leste",
    "iso3": null,
    "num_code": null,
    "phone_code": 670
  },
  {
    "id": 213,
    "iso": "TG",
    "name": "TOGO",
    "display_name": "Togo",
    "iso3": "TGO",
    "num_code": 768,
    "phone_code": 228
  },
  {
    "id": 214,
    "iso": "TK",
    "name": "TOKELAU",
    "display_name": "Tokelau",
    "iso3": "TKL",
    "num_code": 772,
    "phone_code": 690
  },
  {
    "id": 215,
    "iso": "TO",
    "name": "TONGA",
    "display_name": "Tonga",
    "iso3": "TON",
    "num_code": 776,
    "phone_code": 676
  },
  {
    "id": 216,
    "iso": "TT",
    "name": "TRINIDAD AND TOBAGO",
    "display_name": "Trinidad and Tobago",
    "iso3": "TTO",
    "num_code": 780,
    "phone_code": 1868
  },
  {
    "id": 217,
    "iso": "TN",
    "name": "TUNISIA",
    "display_name": "Tunisia",
    "iso3": "TUN",
    "num_code": 788,
    "phone_code": 216
  },
  {
    "id": 218,
    "iso": "TR",
    "name": "TURKEY",
    "display_name": "Turkey",
    "iso3": "TUR",
    "num_code": 792,
    "phone_code": 90
  },
  {
    "id": 219,
    "iso": "TM",
    "name": "TURKMENISTAN",
    "display_name": "Turkmenistan",
    "iso3": "TKM",
    "num_code": 795,
    "phone_code": 7370
  },
  {
    "id": 220,
    "iso": "TC",
    "name": "TURKS AND CAICOS ISLANDS",
    "display_name": "Turks and Caicos Islands",
    "iso3": "TCA",
    "num_code": 796,
    "phone_code": 1649
  },
  {
    "id": 221,
    "iso": "TV",
    "name": "TUVALU",
    "display_name": "Tuvalu",
    "iso3": "TUV",
    "num_code": 798,
    "phone_code": 688
  },
  {
    "id": 222,
    "iso": "UG",
    "name": "UGANDA",
    "display_name": "Uganda",
    "iso3": "UGA",
    "num_code": 800,
    "phone_code": 256
  },
  {
    "id": 223,
    "iso": "UA",
    "name": "UKRAINE",
    "display_name": "Ukraine",
    "iso3": "UKR",
    "num_code": 804,
    "phone_code": 380
  },
  {
    "id": 224,
    "iso": "AE",
    "name": "UNITED ARAB EMIRATES",
    "display_name": "United Arab Emirates",
    "iso3": "ARE",
    "num_code": 784,
    "phone_code": 971
  },
  {
    "id": 225,
    "iso": "GB",
    "name": "UNITED KINGDOM",
    "display_name": "United Kingdom",
    "iso3": "GBR",
    "num_code": 826,
    "phone_code": 44
  },
  {
    "id": 227,
    "iso": "UM",
    "name": "UNITED STATES MINOR OUTLYING ISLANDS",
    "display_name": "United States Minor Outlying Islands",
    "iso3": null,
    "num_code": null,
    "phone_code": 1
  },
  {
    "id": 228,
    "iso": "UY",
    "name": "URUGUAY",
    "display_name": "Uruguay",
    "iso3": "URY",
    "num_code": 858,
    "phone_code": 598
  },
  {
    "id": 229,
    "iso": "UZ",
    "name": "UZBEKISTAN",
    "display_name": "Uzbekistan",
    "iso3": "UZB",
    "num_code": 860,
    "phone_code": 998
  },
  {
    "id": 230,
    "iso": "VU",
    "name": "VANUATU",
    "display_name": "Vanuatu",
    "iso3": "VUT",
    "num_code": 548,
    "phone_code": 678
  },
  {
    "id": 231,
    "iso": "VE",
    "name": "VENEZUELA",
    "display_name": "Venezuela",
    "iso3": "VEN",
    "num_code": 862,
    "phone_code": 58
  },
  {
    "id": 232,
    "iso": "VN",
    "name": "VIET NAM",
    "display_name": "Viet Nam",
    "iso3": "VNM",
    "num_code": 704,
    "phone_code": 84
  },
  {
    "id": 233,
    "iso": "VG",
    "name": "VIRGIN ISLANDS, BRITISH",
    "display_name": "Virgin Islands, British",
    "iso3": "VGB",
    "num_code": 92,
    "phone_code": 1284
  },
  {
    "id": 234,
    "iso": "VI",
    "name": "VIRGIN ISLANDS, U.S.",
    "display_name": "Virgin Islands, U.s.",
    "iso3": "VIR",
    "num_code": 850,
    "phone_code": 1340
  },
  {
    "id": 235,
    "iso": "WF",
    "name": "WALLIS AND FUTUNA",
    "display_name": "Wallis and Futuna",
    "iso3": "WLF",
    "num_code": 876,
    "phone_code": 681
  },
  {
    "id": 236,
    "iso": "EH",
    "name": "WESTERN SAHARA",
    "display_name": "Western Sahara",
    "iso3": "ESH",
    "num_code": 732,
    "phone_code": 212
  },
  {
    "id": 237,
    "iso": "YE",
    "name": "YEMEN",
    "display_name": "Yemen",
    "iso3": "YEM",
    "num_code": 887,
    "phone_code": 967
  },
  {
    "id": 238,
    "iso": "ZM",
    "name": "ZAMBIA",
    "display_name": "Zambia",
    "iso3": "ZMB",
    "num_code": 894,
    "phone_code": 260
  },
  {
    "id": 239,
    "iso": "ZW",
    "name": "ZIMBABWE",
    "display_name": "Zimbabwe",
    "iso3": "ZWE",
    "num_code": 716,
    "phone_code": 263
  },
  {
    "id": 240,
    "iso": "DO",
    "name": "DOMINICAN REPUBLIC",
    "display_name": "Dominican Republic",
    "iso3": "DOM",
    "num_code": 214,
    "phone_code": 1829
  },
  {
    "id": 241,
    "iso": "DO",
    "name": "DOMINICAN REPUBLIC",
    "display_name": "Dominican Republic",
    "iso3": "DOM",
    "num_code": 214,
    "phone_code": 1849
  },
  {
    "id": 242,
    "iso": "PR",
    "name": "PUERTO RICO",
    "display_name": "Puerto Rico",
    "iso3": "PRI",
    "num_code": 630,
    "phone_code": 1939
  }
]